NORAD_CAT_ID,OBJECT_NAME,OBJECT_TYPE,EPOCH,MEAN_MOTION,ECCENTRICITY,INCLINATION,RA_OF_ASC_NODE,ARG_OF_PERICENTER,MEAN_ANOMALY,BSTAR,MEAN_MOTION_DOT,MEAN_MOTION_DDOT,TLE_LINE0,TLE_LINE1,TLE_LINE2,SEMIMAJOR_AXIS,PERIOD,APOGEE,PERIGEE,DECAYED
51148.0,STARLINK-3359,PAYLOAD,2023-11-21 16:50:03,15.08843856,0.0001365,53.2169,115.6878,93.3575,266.7573,3.0089e-05,1.91e-06,0.0,0 STARLINK-3359,1 51148U 22005AW  23325.70143383  .00000191  00000-0  30089-4 0  9997,2 51148  53.2169 115.6878 0001365  93.3575 266.7573 15.08843856101938,6917.869,95.437,540.678,538.789,0.0
51148.0,STARLINK-3359,PAYLOAD,2023-11-21 21:36:12,15.0884815,0.0001371,53.217,114.7955,94.1996,265.9153,6.482e-05,7.44e-06,0.0,0 STARLINK-3359,1 51148U 22005AW  23325.90014983  .00000744  00000-0  64820-4 0  9996,2 51148  53.2170 114.7955 0001371  94.1996 265.9153 15.08848150103073,6917.855,95.437,540.669,538.772,0.0
51148.0,STARLINK-3359,PAYLOAD,2023-11-22 10:19:18,15.08839413,0.0001295,53.2179,112.4165,92.3149,267.7991,9.3199e-06,-1.4e-06,0.0,0 STARLINK-3359,1 51148U 22005AW  23326.43007712 -.00000140  00000-0  93199-5 0  9990,2 51148  53.2179 112.4165 0001295  92.3149 267.7991 15.08839413103156,6917.882,95.438,540.643,538.851,0.0
51148.0,STARLINK-3359,PAYLOAD,2023-11-22 13:30:04,15.08843052,0.0001586,53.2167,111.8208,89.2292,270.8882,3.09e-05,2.04e-06,0.0,0 STARLINK-3359,1 51148U 22005AW  23326.56255437  .00000204  00000-0  30900-4 0  9993,2 51148  53.2167 111.8208 0001586  89.2292 270.8882 15.08843052102068,6917.871,95.437,540.833,538.639,0.0
51148.0,STARLINK-3359,PAYLOAD,2023-11-22 16:40:50,15.088462,0.0001405,53.2168,111.2281,87.9161,272.1992,6.8457e-05,8.02e-06,0.0,0 STARLINK-3359,1 51148U 22005AW  23326.69503120  .00000802  00000-0  68457-4 0  9994,2 51148  53.2168 111.2281 0001405  87.9161 272.1992 15.08846200103194,6917.861,95.437,540.698,538.754,0.0
51148.0,STARLINK-3359,PAYLOAD,2023-11-23 10:10:06,15.08834486,0.0001397,53.2173,107.9539,109.2081,250.9063,-1.384e-05,-5.08e-06,0.0,0 STARLINK-3359,1 51148U 22005AW  23327.42368203 -.00000508  00000-0 -13840-4 0  9998,2 51148  53.2173 107.9539 0001397 109.2081 250.9063 15.08834486103306,6917.897,95.438,540.729,538.796,0.0
51148.0,STARLINK-3359,PAYLOAD,2023-11-23 13:20:52,15.0883569,0.0001503,53.2174,107.3595,109.4013,250.7142,-3.8468e-06,-3.49e-06,0.0,0 STARLINK-3359,1 51148U 22005AW  23327.55616133 -.00000349  00000-0 -38468-5 0  9997,2 51148  53.2174 107.3595 0001503 109.4013 250.7142 15.08835690102212,6917.894,95.438,540.798,538.719,0.0
51148.0,STARLINK-3359,PAYLOAD,2023-11-23 16:31:38,15.08837407,0.000145,53.2177,106.7655,104.3299,255.7854,6.8311e-06,-1.79e-06,0.0,0 STARLINK-3359,1 51148U 22005AW  23327.68864059 -.00000179  00000-0  68311-5 0  9993,2 51148  53.2177 106.7655 0001450 104.3299 255.7854 15.08837407102231,6917.888,95.438,540.756,538.75,0.0
51148.0,STARLINK-3359,PAYLOAD,2023-11-24 13:11:39,15.08836404,0.0001454,53.2186,102.9031,105.3575,254.7578,3.4547e-06,-2.33e-06,0.0,0 STARLINK-3359,1 51148U 22005AW  23328.54976586 -.00000233  00000-0  34547-5 0  9993,2 51148  53.2186 102.9031 0001454 105.3575 254.7578 15.08836404102361,6917.891,95.438,540.762,538.751,0.0
51148.0,STARLINK-3359,PAYLOAD,2023-11-24 14:47:02,15.08837677,0.000145,53.2184,102.6053,106.5812,253.534,4.8314e-06,-2.11e-06,0.0,0 STARLINK-3359,1 51148U 22005AW  23328.61600516 -.00000211  00000-0  48314-5 0  9991,2 51148  53.2184 102.6053 0001450 106.5812 253.5340 15.08837677103484,6917.887,95.438,540.756,538.749,0.0
51148.0,STARLINK-3359,PAYLOAD,2023-11-25 14:37:49,15.08845123,0.0001386,53.2184,98.1442,100.2795,259.8353,0.00018619,2.677e-05,0.0,0 STARLINK-3359,1 51148U 22005AW  23329.60959980  .00002677  00000-0  18619-3 0  9993,2 51148  53.2184  98.1442 0001386 100.2795 259.8353 15.08845123102526,6917.865,95.437,540.689,538.771,0.0
51148.0,STARLINK-3359,PAYLOAD,2023-11-25 16:13:12,15.08850533,0.0001388,53.2183,97.8474,89.9585,270.1567,0.00023414,3.441e-05,0.0,0 STARLINK-3359,1 51148U 22005AW  23329.67583652  .00003441  00000-0  23414-3 0  9998,2 51148  53.2183  97.8474 0001388  89.9585 270.1567 15.08850533102533,6917.848,95.437,540.673,538.753,0.0
51148.0,STARLINK-3359,PAYLOAD,2023-11-26 14:28:36,15.08852702,0.0001696,53.2179,93.6841,72.4784,287.6393,0.00022639,3.318e-05,0.0,0 STARLINK-3359,1 51148U 22005AW  23330.60319522  .00003318  00000-0  22639-3 0  9997,2 51148  53.2179  93.6841 0001696  72.4784 287.6393 15.08852702102675,6917.842,95.437,540.88,538.533,0.0
51148.0,STARLINK-3359,PAYLOAD,2023-11-26 17:39:21,15.08862129,0.0001508,53.2182,93.0866,87.8266,272.2899,0.00029813,4.463e-05,0.0,0 STARLINK-3359,1 51148U 22005AW  23330.73566707  .00004463  00000-0  29813-3 0  9993,2 51148  53.2182  93.0866 0001508  87.8266 272.2899 15.08862129103808,6917.813,95.436,540.721,538.635,0.0
51148.0,STARLINK-3359,PAYLOAD,2023-11-27 07:57:51,15.08829688,0.0001625,53.2186,90.4149,71.1724,288.9444,-0.00028345,-4.795e-05,0.0,0 STARLINK-3359,1 51148U 22005AW  23331.33184640 -.00004795  00000-0 -28345-3 0  9991,2 51148  53.2186  90.4149 0001625  71.1724 288.9444 15.08829688103894,6917.912,95.438,540.901,538.653,0.0
51148.0,STARLINK-3359,PAYLOAD,2023-11-27 14:19:24,15.08828775,0.000173,53.2186,89.2243,73.3706,286.7476,-0.00024867,-4.242e-05,0.0,0 STARLINK-3359,1 51148U 22005AW  23331.59680878 -.00004242  00000-0 -24867-3 0  9995,2 51148  53.2186  89.2243 0001730  73.3706 286.7476 15.08828775102825,6917.915,95.438,540.976,538.583,0.0
51148.0,STARLINK-3359,PAYLOAD,2023-11-28 10:59:24,15.08845357,0.0001323,53.2182,85.3624,82.4247,277.6896,-1.2812e-05,-4.92e-06,0.0,0 STARLINK-3359,1 51148U 22005AW  23332.45792075 -.00000492  00000-0 -12812-4 0  9995,2 51148  53.2182  85.3624 0001323  82.4247 277.6896 15.08845357104068,6917.864,95.437,540.644,538.814,0.0
51148.0,STARLINK-3359,PAYLOAD,2023-11-28 14:10:10,15.08851172,0.0001634,53.2196,84.7691,87.1201,272.9978,0.00010513,1.386e-05,0.0,0 STARLINK-3359,1 51148U 22005AW  23332.59040035  .00001386  00000-0  10513-3 0  9998,2 51148  53.2196  84.7691 0001634  87.1201 272.9978 15.08851172102976,6917.846,95.437,540.842,538.581,0.0
51148.0,STARLINK-3359,PAYLOAD,2023-11-28 17:20:56,15.08860929,0.00015,53.2184,84.1678,90.1182,269.9982,0.00030042,4.499e-05,0.0,0 STARLINK-3359,1 51148U 22005AW  23332.72287435  .00004499  00000-0  30042-3 0  9997,2 51148  53.2184  84.1678 0001500  90.1182 269.9982 15.08860929104104,6917.816,95.436,540.719,538.644,0.0
51148.0,STARLINK-3359,PAYLOAD,2023-11-29 12:25:34,15.08849362,0.0002285,53.2176,80.593,128.4694,231.6504,0.00034273,5.172e-05,0.0,0 STARLINK-3359,1 51148U 22005AW  23333.51776307  .00005172  00000-0  34273-3 0  9995,2 51148  53.2176  80.5930 0002285 128.4694 231.6504 15.08849362104227,6917.852,95.437,541.298,538.136,0.0
51148.0,STARLINK-3359,PAYLOAD,2023-11-29 14:00:58,15.08849302,0.0001574,53.2184,80.304,86.1726,273.9446,0.00040445,6.156e-05,0.0,0 STARLINK-3359,1 51148U 22005AW  23333.58400610  .00006156  00000-0  40445-3 0  9994,2 51148  53.2184  80.3040 0001574  86.1726 273.9446 15.08849302103128,6917.852,95.437,540.806,538.628,0.0
51148.0,STARLINK-3359,PAYLOAD,2023-11-30 12:16:22,15.08843508,0.0001572,53.2194,76.1412,101.3256,258.7913,0.00029745,4.45e-05,0.0,0 STARLINK-3359,1 51148U 22005AW  23334.51136710  .00004450  00000-0  29745-3 0  9990,2 51148  53.2194  76.1412 0001572 101.3256 258.7913 15.08843508104371,6917.87,95.437,540.822,538.647,0.0
51148.0,STARLINK-3359,PAYLOAD,2023-12-01 12:07:09,15.08846724,0.0001596,53.2188,71.6806,105.1699,254.9469,0.00060691,9.386e-05,0.0,0 STARLINK-3359,1 51148U 22005AW  23335.50496964  .00009386  00000-0  60691-3 0  9998,2 51148  53.2188  71.6806 0001596 105.1699 254.9469 15.08846724104524,6917.86,95.437,540.829,538.621,0.0
51148.0,STARLINK-3359,PAYLOAD,2023-12-01 13:42:32,15.08851842,0.0001624,53.2189,71.3827,107.4124,252.7046,0.00077862,0.00012129,0.0,0 STARLINK-3359,1 51148U 22005AW  23335.57120827  .00012129  00000-0  77862-3 0  9994,2 51148  53.2189  71.3827 0001624 107.4124 252.7046 15.08851842103427,6917.844,95.437,540.833,538.586,0.0
51148.0,STARLINK-3359,PAYLOAD,2023-12-02 11:57:55,15.08823208,0.0002387,53.2185,67.2192,144.3731,215.7421,-0.001198,-0.00019296,0.0,0 STARLINK-3359,1 51148U 22005AW  23336.49855526 -.00019296  00000-0 -11980-2 0  9999,2 51148  53.2185  67.2192 0002387 144.3731 215.7421 15.08823208104672,6917.932,95.439,541.448,538.145,0.0
51148.0,STARLINK-3359,PAYLOAD,2023-12-02 13:33:19,15.08798976,0.0001475,53.2183,66.9237,79.6867,280.4291,-0.0014385,-0.00023083,0.0,0 STARLINK-3359,1 51148U 22005AW  23336.56480664 -.00023083  00000-0 -14385-2 0  9995,2 51148  53.2183  66.9237 0001475  79.6867 280.4291 15.08798976103578,6918.006,95.44,540.891,538.85,0.0
51148.0,STARLINK-3359,PAYLOAD,2023-12-03 11:48:45,15.08801086,0.0001438,53.2171,62.7597,84.938,275.1776,0.00066285,0.00010266,0.0,0 STARLINK-3359,1 51148U 22005AW  23337.49219800  .00010266  00000-0  66285-3 0  9994,2 51148  53.2171  62.7597 0001438  84.9380 275.1776 15.08801086104821,6917.999,95.44,540.859,538.87,0.0
51148.0,STARLINK-3359,PAYLOAD,2023-12-03 13:24:09,15.08804431,0.0001541,53.2175,62.4627,75.3506,284.7657,0.00074478,0.00011574,0.0,0 STARLINK-3359,1 51148U 22005AW  23337.55844006  .00011574  00000-0  74478-3 0  9999,2 51148  53.2175  62.4627 0001541  75.3506 284.7657 15.08804431103724,6917.989,95.44,540.92,538.788,0.0
51148.0,STARLINK-3359,PAYLOAD,2023-12-04 11:39:32,15.08861913,0.0001504,53.2171,58.3036,79.6421,280.4741,0.0013488,0.00021256,0.0,0 STARLINK-3359,1 51148U 22005AW  23338.48579652  .00021256  00000-0  13488-2 0  9995,2 51148  53.2171  58.3036 0001504  79.6421 280.4741 15.08861913104973,6917.813,95.436,540.719,538.638,0.0
51148.0,STARLINK-3359,PAYLOAD,2023-12-04 14:50:18,15.08877254,0.0001744,53.2178,57.7038,66.5655,293.5521,0.0017452,0.00027625,0.0,0 STARLINK-3359,1 51148U 22005AW  23338.61827344  .00027625  00000-0  17452-2 0  9995,2 51148  53.2178  57.7038 0001744  66.5655 293.5521 15.08877254103880,6917.767,95.435,540.838,538.425,0.0
